{
    "links": {
        "self": "http://www.neowsapp.com/rest/v1/neo/3748483?api_key=iIulBulltgU6a56xZRHN4H3l9WmuAYTsLGpBGhQ2"
    },
    "id": "3748483",
    "neo_reference_id": "3748483",
    "name": "(2016 FQ13)",
    "designation": "2016 FQ13",
    "nasa_jpl_url": "http://ssd.jpl.nasa.gov/sbdb.cgi?sstr=3748483",
    "absolute_magnitude_h": 23.3,
    "estimated_diameter": {
        "kilometers": {
            "estimated_diameter_min": 0.058150704,
            "estimated_diameter_max": 0.130028927
        },
        "meters": {
            "estimated_diameter_min": 58.1507039646,
            "estimated_diameter_max": 130.0289270043
        },
        "miles": {
            "estimated_diameter_min": 0.0361331611,
            "estimated_diameter_max": 0.0807962044
        },
        "feet": {
            "estimated_diameter_min": 190.7831555951,
            "estimated_diameter_max": 426.6041048727
        }
    },
    "is_potentially_hazardous_asteroid": false,
    "close_approach_data": [
        {
            "close_approach_date": "2016-02-20",
            "close_approach_date_full": "2016-Feb-20 09:30",
            "epoch_date_close_approach": 1455960600000,
            "relative_velocity": {
                "kilometers_per_second": "16.623247919",
                "kilometers_per_hour": "59843.6925082348",
                "miles_per_hour": "37184.5432699084"
            },
            "miss_distance": {
                "astronomical": "0.1826752418",
                "lunar": "71.0606690602",
                "kilometers": "27327827.075014966",
                "miles": "16980724.3377638908"
            },
            "orbiting_body": "Earth"
        }
    ],
    "orbital_data": {
        "orbit_id": "3",
        "orbit_determination_date": "2017-04-06 08:27:08",
        "first_observation_date": "2016-03-28",
        "last_observation_date": "2016-04-01",
        "data_arc_in_days": 4,
        "observations_used": 14,
        "orbit_uncertainty": "9",
        "minimum_orbit_intersection": ".00672519",
        "jupiter_tisserand_invariant": "3.525",
        "epoch_osculation": "2457478.5",
        "eccentricity": ".7239735944638798",
        "semi_major_axis": "1.938111964674118",
        "inclination": "3.747388787832673",
        "ascending_node_longitude": "324.7625821213231",
        "orbital_period": "985.5229014254492",
        "perihelion_distance": ".5349700791355447",
        "perihelion_argument": "102.8585306103436",
        "aphelion_distance": "3.341253850212691",
        "perihelion_time": "2457394.081147595196",
        "mean_anomaly": "30.83722034442076",
        "mean_motion": ".3652883149435696",
        "equinox": "J2000",
        "orbit_class": {
            "orbit_class_type": "APO",
            "orbit_class_description": "Near-Earth asteroid orbits which cross the Earth’s orbit similar to that of 1862 Apollo",
            "orbit_class_range": "a (semi-major axis) > 1.0 AU; q (perihelion) < 1.017 AU"
        }
    },
    "is_sentry_object": false
}